STARLINK-33893          
1 64253U 25119W   26068.01363454  .00034589  00000+0  12599-2 0  9992
2 64253  42.9969 311.0709 0001277 280.8883  79.1825 15.27597675 44066
PELICAN-6               
1 66703U 25276AP  26068.70709364  .00077979  00000+0  29726-2 0  9998
2 66703  97.4276 144.2072 0003569 157.8575 202.2819 15.26377980 15334
